start=new Date('2022-04-03T00:00:00.000Z').valueOf();
sats=[{"RA_OF_ASC_NODE":"279.0521","CLASSIFICATION_TYPE":"U","APOAPSIS":"535.638","MEAN_ANOMALY":"231.5059","REF_FRAME":"TEME","SITE":"AFETR","CENTER_NAME":"EARTH","GP_ID":"200325366","FILE":"3385473","LAUNCH_DATE":"2022-01-19","COUNTRY_CODE":"US","INCLINATION":"53.2174","ELEMENT_SET_NO":"999","MEAN_MOTION_DOT":"-0.00661297","EPOCH":"2022-04-02T22:00:01.999584","NORAD_CAT_ID":"51148","ARG_OF_PERICENTER":"43.2023","OBJECT_TYPE":"PAYLOAD","RCS_SIZE":"LARGE","MEAN_ELEMENT_THEORY":"SGP4","BSTAR":"-0.04226900000000","TLE_LINE2":"2 51148  53.2174 279.0521 0001840  43.2023 231.5059 15.10601677  3637","REV_AT_EPOCH":"363","MEAN_MOTION_DDOT":"0.0000000000000","TIME_SYSTEM":"UTC","SEMIMAJOR_AXIS":"6912.501","ECCENTRICITY":"0.00018400","DECAY_DATE":null,"EPHEMERIS_TYPE":"0","MEAN_MOTION":"15.10601677","PERIOD":"95.326","PERIAPSIS":"533.094","OBJECT_NAME":"STARLINK-3359","TLE_LINE1":"1 51148U 22005AW  22092.91668981 -.00661297  00000-0 -42269-1 0  9998","OBJECT_ID":"2022-005AW"},{"ARG_OF_PERICENTER":"41.1283","OBJECT_TYPE":"PAYLOAD","LAUNCH_DATE":"2022-01-19","INCLINATION":"53.2174","COUNTRY_CODE":"US","ELEMENT_SET_NO":"999","MEAN_MOTION_DOT":"-0.00661554","EPOCH":"2022-04-02T22:00:01.999584","NORAD_CAT_ID":"51149","CENTER_NAME":"EARTH","FILE":"3385473","GP_ID":"200325868","RA_OF_ASC_NODE":"279.0528","CLASSIFICATION_TYPE":"U","APOAPSIS":"535.293","REF_FRAME":"TEME","MEAN_ANOMALY":"253.0313","SITE":"AFETR","PERIAPSIS":"532.724","PERIOD":"95.319","OBJECT_NAME":"STARLINK-3360","TLE_LINE1":"1 51149U 22005AX  22092.91668981 -.00661554  00000-0 -42149-1 0  9992","OBJECT_ID":"2022-005AX","SEMIMAJOR_AXIS":"6912.143","ECCENTRICITY":"0.00018580","DECAY_DATE":null,"MEAN_MOTION":"15.10718850","EPHEMERIS_TYPE":"0","MEAN_MOTION_DDOT":"0.0000000000000","TIME_SYSTEM":"UTC","RCS_SIZE":"LARGE","MEAN_ELEMENT_THEORY":"SGP4","BSTAR":"-0.04214900000000","TLE_LINE2":"2 51149  53.2174 279.0528 0001858  41.1283 253.0313 15.10718850  3633","REV_AT_EPOCH":"363"},{"RCS_SIZE":"LARGE","BSTAR":"-0.01616700000000","MEAN_ELEMENT_THEORY":"SGP4","TLE_LINE2":"2 51150  53.2174 271.9099 0001485  43.8073  28.5481 15.45012434  3679","REV_AT_EPOCH":"367","TIME_SYSTEM":"UTC","MEAN_MOTION_DDOT":"0.0000000000000","MEAN_MOTION":"15.45012434","EPHEMERIS_TYPE":"0","SEMIMAJOR_AXIS":"6809.479","ECCENTRICITY":"0.00014850","DECAY_DATE":null,"TLE_LINE1":"1 51150U 22005AY  22092.91668981 -.00716999  00000-0 -16167-1 0  9999","OBJECT_ID":"2022-005AY","PERIOD":"93.203","PERIAPSIS":"430.332","OBJECT_NAME":"STARLINK-3357","MEAN_ANOMALY":"28.5481","REF_FRAME":"TEME","SITE":"AFETR","RA_OF_ASC_NODE":"271.9099","CLASSIFICATION_TYPE":"U","APOAPSIS":"432.355","CENTER_NAME":"EARTH","GP_ID":"200324865","FILE":"3385473","MEAN_MOTION_DOT":"-0.00716999","EPOCH":"2022-04-02T22:00:01.999584","NORAD_CAT_ID":"51150","LAUNCH_DATE":"2022-01-19","INCLINATION":"53.2174","COUNTRY_CODE":"US","ELEMENT_SET_NO":"999","ARG_OF_PERICENTER":"43.8073","OBJECT_TYPE":"PAYLOAD"},{"RA_OF_ASC_NODE":"279.0540","CLASSIFICATION_TYPE":"U","APOAPSIS":"534.418","MEAN_ANOMALY":"284.9056","REF_FRAME":"TEME","SITE":"AFETR","CENTER_NAME":"EARTH","GP_ID":"200325116","FILE":"3385473","LAUNCH_DATE":"2022-01-19","INCLINATION":"53.2174","COUNTRY_CODE":"US","ELEMENT_SET_NO":"999","MEAN_MOTION_DOT":"-0.00662419","EPOCH":"2022-04-02T22:00:01.999584","NORAD_CAT_ID":"51151","ARG_OF_PERICENTER":"48.0512","OBJECT_TYPE":"PAYLOAD","RCS_SIZE":"LARGE","BSTAR":"-0.04193500000000","MEAN_ELEMENT_THEORY":"SGP4","TLE_LINE2":"2 51151  53.2174 279.0540 0001627  48.0512 284.9056 15.10953261  3639","REV_AT_EPOCH":"363","MEAN_MOTION_DDOT":"0.0000000000000","TIME_SYSTEM":"UTC","SEMIMAJOR_AXIS":"6911.429","ECCENTRICITY":"0.00016270","DECAY_DATE":null,"MEAN_MOTION":"15.10953261","EPHEMERIS_TYPE":"0","PERIOD":"95.304","PERIAPSIS":"532.169","OBJECT_NAME":"STARLINK-3361","TLE_LINE1":"1 51151U 22005AZ  22092.91668981 -.00662419  00000-0 -41935-1 0  9998","OBJECT_ID":"2022-005AZ"},{"OBJECT_TYPE":"PAYLOAD","ARG_OF_PERICENTER":"44.3286","NORAD_CAT_ID":"51152","EPOCH":"2022-04-02T22:00:01.999584","MEAN_MOTION_DOT":"-0.00662033","ELEMENT_SET_NO":"999","COUNTRY_CODE":"US","INCLINATION":"53.2174","LAUNCH_DATE":"2022-01-19","FILE":"3385473","GP_ID":"200325867","CENTER_NAME":"EARTH","SITE":"AFETR","MEAN_ANOMALY":"269.2471","REF_FRAME":"TEME","APOAPSIS":"534.858","CLASSIFICATION_TYPE":"U","RA_OF_ASC_NODE":"279.0534","OBJECT_ID":"2022-005BA","TLE_LINE1":"1 51152U 22005BA  22092.91668981 -.00662033  00000-0 -42045-1 0  9994","OBJECT_NAME":"STARLINK-3364","PERIOD":"95.311","PERIAPSIS":"532.444","MEAN_MOTION":"15.10836105","EPHEMERIS_TYPE":"0","DECAY_DATE":null,"ECCENTRICITY":"0.00017460","SEMIMAJOR_AXIS":"6911.786","TIME_SYSTEM":"UTC","MEAN_MOTION_DDOT":"0.0000000000000","REV_AT_EPOCH":"363","TLE_LINE2":"2 51152  53.2174 279.0534 0001746  44.3286 269.2471 15.10836105  3636","BSTAR":"-0.04204500000000","RCS_SIZE":"LARGE","MEAN_ELEMENT_THEORY":"SGP4"},{"ARG_OF_PERICENTER":"51.8078","OBJECT_TYPE":"PAYLOAD","EPOCH":"2022-04-02T22:00:01.999584","MEAN_MOTION_DOT":"-0.00606904","NORAD_CAT_ID":"51460","LAUNCH_DATE":"2022-02-03","ELEMENT_SET_NO":"999","INCLINATION":"53.2169","COUNTRY_CODE":"US","CENTER_NAME":"EARTH","FILE":"3385294","GP_ID":"200300237","MEAN_ANOMALY":"187.5206","REF_FRAME":"TEME","SITE":"AFETR","CLASSIFICATION_TYPE":"U","RA_OF_ASC_NODE":"249.6834","APOAPSIS":"487.775","TLE_LINE1":"1 51460U 22010E   22092.91668981 -.00606904  00000-0 -24688-1 0  9990","OBJECT_ID":"2022-010E","OBJECT_NAME":"STARLINK-3167","PERIAPSIS":"485.713","PERIOD":"94.343","MEAN_MOTION":"15.26347609","EPHEMERIS_TYPE":"0","SEMIMAJOR_AXIS":"6864.879","DECAY_DATE":null,"ECCENTRICITY":"0.00015020","TIME_SYSTEM":"UTC","MEAN_MOTION_DDOT":"0.0000000000000","TLE_LINE2":"2 51460  53.2169 249.6834 0001502  51.8078 187.5206 15.26347609 10347","RCS_SIZE":"LARGE","BSTAR":"-0.02468800000000","MEAN_ELEMENT_THEORY":"SGP4","REV_AT_EPOCH":"1034"},{"SITE":"AFETR","MEAN_ANOMALY":"93.0162","REF_FRAME":"TEME","APOAPSIS":"488.277","RA_OF_ASC_NODE":"249.7277","CLASSIFICATION_TYPE":"U","GP_ID":"200326317","FILE":"3385473","CENTER_NAME":"EARTH","NORAD_CAT_ID":"51461","MEAN_MOTION_DOT":"-0.00579808","EPOCH":"2022-04-02T22:00:01.999584","COUNTRY_CODE":"US","INCLINATION":"53.2171","ELEMENT_SET_NO":"999","LAUNCH_DATE":"2022-02-03","OBJECT_TYPE":"PAYLOAD","ARG_OF_PERICENTER":"50.1551","REV_AT_EPOCH":"363","RCS_SIZE":"LARGE","MEAN_ELEMENT_THEORY":"SGP4","BSTAR":"-0.02359300000000","TLE_LINE2":"2 51461  53.2171 249.7277 0001735  50.1551  93.0162 15.26233638  3631","TIME_SYSTEM":"UTC","MEAN_MOTION_DDOT":"0.0000000000000","EPHEMERIS_TYPE":"0","MEAN_MOTION":"15.26233638","ECCENTRICITY":"0.00017350","DECAY_DATE":null,"SEMIMAJOR_AXIS":"6865.221","OBJECT_ID":"2022-010F","TLE_LINE1":"1 51461U 22010F   22092.91668981 -.00579808  00000-0 -23593-1 0  9997","PERIAPSIS":"485.894","PERIOD":"94.350","OBJECT_NAME":"STARLINK-3181"},{"FILE":"3385473","GP_ID":"200326611","CENTER_NAME":"EARTH","SITE":"AFETR","MEAN_ANOMALY":"101.7090","REF_FRAME":"TEME","APOAPSIS":"487.852","RA_OF_ASC_NODE":"249.7271","CLASSIFICATION_TYPE":"U","OBJECT_TYPE":"PAYLOAD","ARG_OF_PERICENTER":"56.1787","NORAD_CAT_ID":"51462","MEAN_MOTION_DOT":"-0.00577054","EPOCH":"2022-04-02T22:00:01.999584","COUNTRY_CODE":"US","INCLINATION":"53.2170","ELEMENT_SET_NO":"999","LAUNCH_DATE":"2022-02-03","TIME_SYSTEM":"UTC","MEAN_MOTION_DDOT":"0.0000000000000","REV_AT_EPOCH":"363","MEAN_ELEMENT_THEORY":"SGP4","RCS_SIZE":"LARGE","BSTAR":"-0.02338400000000","TLE_LINE2":"2 51462  53.2170 249.7271 0001667  56.1787 101.7090 15.26359809  3632","OBJECT_ID":"2022-010G","TLE_LINE1":"1 51462U 22010G   22092.91668981 -.00577054  00000-0 -23384-1 0  9997","PERIOD":"94.342","PERIAPSIS":"485.563","OBJECT_NAME":"STARLINK-3166","MEAN_MOTION":"15.26359809","EPHEMERIS_TYPE":"0","ECCENTRICITY":"0.00016670","DECAY_DATE":null,"SEMIMAJOR_AXIS":"6864.842"},{"ARG_OF_PERICENTER":"56.2684","OBJECT_TYPE":"PAYLOAD","EPOCH":"2022-04-02T22:00:01.999584","MEAN_MOTION_DOT":"-0.00720638","NORAD_CAT_ID":"51463","LAUNCH_DATE":"2022-02-03","ELEMENT_SET_NO":"999","COUNTRY_CODE":"US","INCLINATION":"53.2173","CENTER_NAME":"EARTH","GP_ID":"200325895","FILE":"3385473","REF_FRAME":"TEME","MEAN_ANOMALY":"226.9630","SITE":"AFETR","CLASSIFICATION_TYPE":"U","RA_OF_ASC_NODE":"249.6823","APOAPSIS":"486.349","TLE_LINE1":"1 51463U 22010H   22092.91668981 -.00720638  00000-0 -28922-1 0  9999","OBJECT_ID":"2022-010H","OBJECT_NAME":"STARLINK-3419","PERIOD":"94.314","PERIAPSIS":"484.353","MEAN_MOTION":"15.26812201","EPHEMERIS_TYPE":"0","SEMIMAJOR_AXIS":"6863.486","DECAY_DATE":null,"ECCENTRICITY":"0.00014540","TIME_SYSTEM":"UTC","MEAN_MOTION_DDOT":"0.0000000000000","TLE_LINE2":"2 51463  53.2173 249.6823 0001454  56.2684 226.9630 15.26812201  3662","MEAN_ELEMENT_THEORY":"SGP4","RCS_SIZE":"LARGE","BSTAR":"-0.02892200000000","REV_AT_EPOCH":"366"},{"ELEMENT_SET_NO":"999","COUNTRY_CODE":"US","INCLINATION":"53.2168","LAUNCH_DATE":"2022-02-03","NORAD_CAT_ID":"51464","EPOCH":"2022-04-02T22:00:01.999584","MEAN_MOTION_DOT":"-0.00642604","OBJECT_TYPE":"PAYLOAD","ARG_OF_PERICENTER":"42.2682","APOAPSIS":"487.058","CLASSIFICATION_TYPE":"U","RA_OF_ASC_NODE":"249.7261","SITE":"AFETR","MEAN_ANOMALY":"144.9071","REF_FRAME":"TEME","GP_ID":"200300271","FILE":"3385296","CENTER_NAME":"EARTH","DECAY_DATE":null,"ECCENTRICITY":"0.00018500","SEMIMAJOR_AXIS":"6863.924","EPHEMERIS_TYPE":"0","MEAN_MOTION":"15.26666218","OBJECT_NAME":"STARLINK-3189","PERIOD":"94.323","PERIAPSIS":"484.519","OBJECT_ID":"2022-010J","TLE_LINE1":"1 51464U 22010J   22092.91668981 -.00642604  00000-0 -25993-1 0  9991","REV_AT_EPOCH":"1035","TLE_LINE2":"2 51464  53.2168 249.7261 0001850  42.2682 144.9071 15.26666218 10354","RCS_SIZE":"LARGE","MEAN_ELEMENT_THEORY":"SGP4","BSTAR":"-0.02599300000000","MEAN_MOTION_DDOT":"0.0000000000000","TIME_SYSTEM":"UTC"}];
